[{"OBJECT_NAME":"CO3D 1","OBJECT_ID":"2025-156E","EPOCH":"2026-03-09T23:01:54.556608","MEAN_MOTION":15.20198401,"ECCENTRICITY":0.00012531,"INCLINATION":97.4325,"RA_OF_ASC_NODE":148.9757,"ARG_OF_PERICENTER":124.0603,"MEAN_ANOMALY":236.0752,"EPHEMERIS_TYPE":0,"CLASSIFICATION_TYPE":"U","NORAD_CAT_ID":64903,"ELEMENT_SET_NO":999,"REV_AT_EPOCH":3445,"BSTAR":0.00031841163,"MEAN_MOTION_DOT":6.831e-5,"MEAN_MOTION_DDOT":0},{"OBJECT_NAME":"FENGYUN 1C DEB","OBJECT_ID":"1999-025BYB","EPOCH":"2026-03-09T05:05:13.521120","MEAN_MOTION":14.56393574,"ECCENTRICITY":0.02857078,"INCLINATION":98.2326,"RA_OF_ASC_NODE":339.505,"ARG_OF_PERICENTER":237.0918,"MEAN_ANOMALY":120.25,"EPHEMERIS_TYPE":0,"CLASSIFICATION_TYPE":"U","NORAD_CAT_ID":31536,"ELEMENT_SET_NO":999,"REV_AT_EPOCH":97515,"BSTAR":0.0011428862,"MEAN_MOTION_DOT":8.819e-5,"MEAN_MOTION_DDOT":0}]
